$$SOE
2460721.500000000, A.D. 2025-Feb-15 00:00:00.0000, 1.137879356879527E+07, 4.778976580784744E+08, -1.107102750155831E+08,
2460728.500000000, A.D. 2025-Feb-22 00:00:00.0000, 3.831109079248111E+06, 4.794806313399343E+08, -1.152351429772159E+08,
2460735.500000000, A.D. 2025-Mar-01 00:00:00.0000, -3.717990888749574E+06, 4.808698523775449E+08, -1.197132043133865E+08,
2460742.500000000, A.D. 2025-Mar-08 00:00:00.0000, -1.126547155082374E+07, 4.820675821291098E+08, -1.241433463385152E+08,
2460749.500000000, A.D. 2025-Mar-15 00:00:00.0000, -1.880838404810325E+07, 4.830760622477279E+08, -1.285244994058049E+08,
2460756.500000000, A.D. 2025-Mar-22 00:00:00.0000, -2.634386366511090E+07, 4.838975149264643E+08, -1.328556343075898E+08,
2460763.500000000, A.D. 2025-Mar-29 00:00:00.0000, -3.386912684490880E+07, 4.845341405971125E+08, -1.371357601043684E+08,
2460770.500000000, A.D. 2025-Apr-05 00:00:00.0000, -4.138146667015843E+07, 4.849881166300877E+08, -1.413639221505061E+08,
2460777.500000000, A.D. 2025-Apr-12 00:00:00.0000, -4.887824872867150E+07, 4.852615971283136E+08, -1.455392001259935E+08,
2460784.500000000, A.D. 2025-Apr-19 00:00:00.0000, -5.635690754401603E+07, 4.853567129229698E+08, -1.496607061233624E+08,
2460791.500000000, A.D. 2025-Apr-26 00:00:00.0000, -6.381494329341140E+07, 4.852755715587487E+08, -1.537275828259439E+08,
2460798.500000000, A.D. 2025-May-03 00:00:00.0000, -7.124991869322509E+07, 4.850202572797143E+08, -1.577390017813972E+08,
2460805.500000000, A.D. 2025-May-10 00:00:00.0000, -7.865945601755297E+07, 4.845928310172202E+08, -1.616941617677484E+08,
2460812.500000000, A.D. 2025-May-17 00:00:00.0000, -8.604123420736645E+07, 4.839953303323552E+08, -1.655922872541850E+08,
2460819.500000000, A.D. 2025-May-24 00:00:00.0000, -9.339298589074284E+07, 4.832297692525871E+08, -1.694326269727021E+08,
2460826.500000000, A.D. 2025-May-31 00:00:00.0000, -1.007124938911585E+08, 4.822981383084049E+08, -1.732144526094660E+08,
2460833.500000000, A.D. 2025-Jun-07 00:00:00.0000, -1.079975876196906E+08, 4.812024059705088E+08, -1.769370574771279E+08,
2460840.500000000, A.D. 2025-Jun-14 00:00:00.0000, -1.152461417099549E+08, 4.799445208167787E+08, -1.805997550022452E+08,
2460847.500000000, A.D. 2025-Jun-21 00:00:00.0000, -1.224560756735694E+08, 4.785264111527920E+08, -1.842018774023280E+08,
2460854.500000000, A.D. 2025-Jun-28 00:00:00.0000, -1.296253514443660E+08, 4.769499838467917E+08, -1.877427746915139E+08,
2460861.500000000, A.D. 2025-Jul-05 00:00:00.0000, -1.367519703239661E+08, 4.752171245335664E+08, -1.912218136971307E+08,
2460868.500000000, A.D. 2025-Jul-12 00:00:00.0000, -1.438339705148694E+08, 4.733296983794606E+08, -1.946383770408342E+08,
2460875.500000000, A.D. 2025-Jul-19 00:00:00.0000, -1.508694250471816E+08, 4.712895508308023E+08, -1.979918621455588E+08,
2460882.500000000, A.D. 2025-Jul-26 00:00:00.0000, -1.578564398851881E+08, 4.690985082869540E+08, -2.012816802892786E+08,
2460889.500000000, A.D. 2025-Aug-02 00:00:00.0000, -1.647931521447231E+08, 4.667583787178158E+08, -2.045072557071638E+08,
2460896.500000000, A.D. 2025-Aug-09 00:00:00.0000, -1.716777283943881E+08, 4.642709522096710E+08, -2.076680247429859E+08,
2460903.500000000, A.D. 2025-Aug-16 00:00:00.0000, -1.785083629602859E+08, 4.616380013749401E+08, -2.107634350596249E+08,
2460910.500000000, A.D. 2025-Aug-23 00:00:00.0000, -1.852832759384125E+08, 4.588612816413190E+08, -2.137929449319064E+08,
2460917.500000000, A.D. 2025-Aug-30 00:00:00.0000, -1.920007105827554E+08, 4.559425321335834E+08, -2.167560225915563E+08,
2460924.500000000, A.D. 2025-Sep-06 00:00:00.0000, -1.986589314841343E+08, 4.528834781480162E+08, -2.196521454108110E+08,
2460931.500000000, A.D. 2025-Sep-13 00:00:00.0000, -2.052562252066290E+08, 4.496858327361264E+08, -2.224807989722848E+08,
2460938.500000000, A.D. 2025-Sep-20 00:00:00.0000, -2.117909001048625E+08, 4.463512957517225E+08, -2.252414764565205E+08,
2460945.500000000, A.D. 2025-Sep-27 00:00:00.0000, -2.182612842616247E+08, 4.428815534719263E+08, -2.279336781876868E+08,
2460952.500000000, A.D. 2025-Oct-04 00:00:00.0000, -2.246657235603485E+08, 4.392782793312684E+08, -2.305569111068663E+08,
2460959.500000000, A.D. 2025-Oct-11 00:00:00.0000, -2.310025802637818E+08, 4.355431348255833E+08, -2.331106882139806E+08,
2460966.500000000, A.D. 2025-Oct-18 00:00:00.0000, -2.372702318133729E+08, 4.316777703111361E+08, -2.355945280253417E+08,
2460973.500000000, A.D. 2025-Oct-25 00:00:00.0000, -2.434670697081842E+08, 4.276838257103192E+08, -2.380079540578505E+08,
2460980.500000000, A.D. 2025-Nov-01 00:00:00.0000, -2.495914984220873E+08, 4.235629311401230E+08, -2.403504943416221E+08,
2460987.500000000, A.D. 2025-Nov-08 00:00:00.0000, -2.556419343226931E+08, 4.193167074328184E+08, -2.426216809662270E+08,
2460994.500000000, A.D. 2025-Nov-15 00:00:00.0000, -2.616168044421054E+08, 4.149467664911196E+08, -2.448210496782210E+08,
2461001.500000000, A.D. 2025-Nov-22 00:00:00.0000, -2.675145446949104E+08, 4.104547116986352E+08, -2.469481395481416E+08,
2461008.500000000, A.D. 2025-Nov-29 00:00:00.0000, -2.733335976950349E+08, 4.058421395213591E+08, -2.490024925995647E+08,
2461015.500000000, A.D. 2025-Dec-06 00:00:00.0000, -2.790724124473196E+08, 4.011106421652916E+08, -2.509836532022203E+08,
2461022.500000000, A.D. 2025-Dec-13 00:00:00.0000, -2.847294454779177E+08, 3.962618079208570E+08, -2.528911675435583E+08,
2461029.500000000, A.D. 2025-Dec-20 00:00:00.0000, -2.903031599086869E+08, 3.912972202175109E+08, -2.547245834140541E+08,
2461036.500000000, A.D. 2025-Dec-27 00:00:00.0000, -2.957920235486640E+08, 3.862184579806491E+08, -2.564834499955807E+08,
2461043.500000000, A.D. 2026-Jan-03 00:00:00.0000, -3.011945074606079E+08, 3.810270966769055E+08, -2.581673175692744E+08,
2461050.500000000, A.D. 2026-Jan-10 00:00:00.0000, -3.065090848912542E+08, 3.757247093705629E+08, -2.597757372078553E+08,
2461057.500000000, A.D. 2026-Jan-17 00:00:00.0000, -3.117342303313087E+08, 3.703128677011207E+08, -2.613082604804405E+08,
2461064.500000000, A.D. 2026-Jan-24 00:00:00.0000, -3.168684186259980E+08, 3.647931428063947E+08, -2.627644391744128E+08,
2461071.500000000, A.D. 2026-Jan-31 00:00:00.0000, -3.219101241116017E+08, 3.591671061855638E+08, -2.641438250364244E+08,
2461078.500000000, A.D. 2026-Feb-07 00:00:00.0000, -3.268578197154305E+08, 3.534363304466785E+08, -2.654459695422295E+08,
2461085.500000000, A.D. 2026-Feb-14 00:00:00.0000, -3.317099757652900E+08, 3.476023899251822E+08, -2.666704237192369E+08,
2461092.500000000, A.D. 2026-Feb-21 00:00:00.0000, -3.364650581201798E+08, 3.416668617522404E+08, -2.678167380097317E+08,
2461099.500000000, A.D. 2026-Feb-28 00:00:00.0000, -3.411215267066513E+08, 3.356313285281133E+08, -2.688844619810106E+08,
2461106.500000000, A.D. 2026-Mar-07 00:00:00.0000, -3.456778365187925E+08, 3.294973806526514E+08, -2.698731438534128E+08,
2461113.500000000, A.D. 2026-Mar-14 00:00:00.0000, -3.501324383049028E+08, 3.232666159820360E+08, -2.707823302911609E+08,
2461120.500000000, A.D. 2026-Mar-21 00:00:00.0000, -3.544837771573014E+08, 3.169406397108353E+08, -2.716115663820229E+08,
2461127.500000000, A.D. 2026-Mar-28 00:00:00.0000, -3.587302910146427E+08, 3.105210655094976E+08, -2.723603955378239E+08,
2461134.500000000, A.D. 2026-Apr-04 00:00:00.0000, -3.628704096800332E+08, 3.040095169536910E+08, -2.730283593399051E+08,
2461141.500000000, A.D. 2026-Apr-11 00:00:00.0000, -3.669025540803561E+08, 2.974076288875746E+08, -2.736149973842016E+08,
2461148.500000000, A.D. 2026-Apr-18 00:00:00.0000, -3.708251356068605E+08, 2.907170487162703E+08, -2.741198471411341E+08,
2461155.500000000, A.D. 2026-Apr-25 00:00:00.0000, -3.746365554905273E+08, 2.839394376442901E+08, -2.745424438334433E+08,
2461162.500000000, A.D. 2026-May-02 00:00:00.0000, -3.783352041807926E+08, 2.770764718325146E+08, -2.748823203374165E+08,
2461169.500000000, A.D. 2026-May-09 00:00:00.0000, -3.819194606022472E+08, 2.701298434098731E+08, -2.751390071245620E+08,
2461176.500000000, A.D. 2026-May-16 00:00:00.0000, -3.853876909105780E+08, 2.631012614805403E+08, -2.753120322672213E+08,
2461183.500000000, A.D. 2026-May-23 00:00:00.0000, -3.887382466953600E+08, 2.559924541514394E+08, -2.754009214294145E+08,
2461190.500000000, A.D. 2026-May-30 00:00:00.0000, -3.919694647080482E+08, 2.488051719020717E+08, -2.754051976266564E+08,
2461197.500000000, A.D. 2026-Jun-06 00:00:00.0000, -3.950796684324593E+08, 2.415411890260507E+08, -2.753243809939989E+08,
2461204.500000000, A.D. 2026-Jun-13 00:00:00.0000, -3.980671678315324E+08, 2.342023033460729E+08, -2.751579888824375E+08,
2461211.500000000, A.D. 2026-Jun-20 00:00:00.0000, -4.009302577719420E+08, 2.267903371305850E+08, -2.749055359991185E+08,
2461218.500000000, A.D. 2026-Jun-27 00:00:00.0000, -4.036672168260943E+08, 2.193071388750058E+08, -2.745665344652976E+08,
2461225.500000000, A.D. 2026-Jul-04 00:00:00.0000, -4.062763064525139E+08, 2.117545851762547E+08, -2.741404938576311E+08,
2461232.500000000, A.D. 2026-Jul-11 00:00:00.0000, -4.087557703013655E+08, 2.041345825726438E+08, -2.736269212688067E+08,
2461239.500000000, A.D. 2026-Jul-18 00:00:00.0000, -4.111038335531104E+08, 1.964490693789298E+08, -2.730253213956682E+08,
2461246.500000000, A.D. 2026-Jul-25 00:00:00.0000, -4.133187022667335E+08, 1.887000175234047E+08, -2.723351966585462E+08,
2461253.500000000, A.D. 2026-Aug-01 00:00:00.0000, -4.153985626905128E+08, 1.808894343431867E+08, -2.715560473618568E+08,
2461260.500000000, A.D. 2026-Aug-08 00:00:00.0000, -4.173415803217337E+08, 1.730193643062670E+08, -2.706873719203603E+08,
2461267.500000000, A.D. 2026-Aug-15 00:00:00.0000, -4.191458983018377E+08, 1.650918911152723E+08, -2.697286671541344E+08,
2461274.500000000, A.D. 2026-Aug-22 00:00:00.0000, -4.208096359099707E+08, 1.571091414188525E+08, -2.686794284846807E+08,
2461281.500000000, A.D. 2026-Aug-29 00:00:00.0000, -4.223308894465123E+08, 1.490732887629365E+08, -2.675391499371638E+08,
$$EOE